H1 CPF 01  gfz 2021 07 22 12  7032 tandemx   
H2 1003001  6202 36605    2021 07 22 12 59 42 2021 07 27 00 00 42   120 1 1  0 0 0
H9
10 0 59417  63342.000000  0   -5888663.012   -192530.620  -3578409.490
10 0 59417  63462.000000  0   -5375938.419      9228.436  -4315709.506
10 0 59417  63582.000000  0   -4766260.221    201006.329  -4977405.115
10 0 59417  63702.000000  0   -4070542.406    377869.459  -5551999.413
10 0 59417  63822.000000  0   -3301246.694    535354.939  -6029538.102
10 0 59417  63942.000000  0   -2472151.009    669570.770  -6401770.023
10 0 59417  64062.000000  0   -1598099.966    777281.511  -6662277.719
10 0 59417  64182.000000  0    -694739.046    855978.105  -6806577.757
10 0 59417  64302.000000  0     221761.255    903930.800  -6832188.004
10 0 59417  64422.000000  0    1134986.571    920223.866  -6738665.919
10 0 59417  64542.000000  0    2028566.085    904772.350  -6527618.063
10 0 59417  64662.000000  0    2886460.321    858320.755  -6202675.380
10 0 59417  64782.000000  0    3693244.611    782423.461  -5769436.743
10 0 59417  64902.000000  0    4434383.456    679406.404  -5235381.786
10 0 59417  65022.000000  0    5096493.878    552311.256  -4609753.738
10 0 59417  65142.000000  0    5667593.312    404823.097  -3903410.523
10 0 59417  65262.000000  0    6137325.069    241181.865  -3128645.508
10 0 59417  65382.000000  0    6497157.350     66079.983  -2298981.220
10 0 59417  65502.000000  0    6740552.099   -115452.352  -1428936.870
10 0 59417  65622.000000  0    6863095.982   -298171.281   -533772.840
10 0 59417  65742.000000  0    6862590.509   -476749.472    370780.740
10 0 59417  65862.000000  0    6739099.548   -645910.185   1268807.117
10 0 59417  65982.000000  0    6494951.042   -800561.113   2144491.471
10 0 59417  66102.000000  0    6134693.122   -935924.518   2982409.453
10 0 59417  66222.000000  0    5665003.426  -1047660.141   3767806.716
10 0 59417  66342.000000  0    5094558.514  -1131977.785   4486863.728
10 0 59417  66462.000000  0    4433863.947  -1185737.847   5126942.314
10 0 59417  66582.000000  0    3695050.411  -1206535.048   5676807.227
10 0 59417  66702.000000  0    2891641.759  -1192765.043   6126820.597
10 0 59417  66822.000000  0    2038299.700  -1143673.272   6469105.505
10 0 59417  66942.000000  0    1150551.522  -1059384.633   6697678.530
10 0 59417  67062.000000  0     244503.450   -940913.030   6808548.971
10 0 59417  67182.000000  0    -663452.821   -790150.603   6799782.907
10 0 59417  67302.000000  0   -1556935.586   -609837.719   6671533.806
10 0 59417  67422.000000  0   -2419867.189   -403513.300   6426039.770
10 0 59417  67542.000000  0   -3236762.125   -175446.489   6067587.603
10 0 59417  67662.000000  0   -3993006.360     69449.316   5602443.706
10 0 59417  67782.000000  0   -4675123.249    325718.649   5038750.767
10 0 59417  67902.000000  0   -5271020.251    587480.423   4386390.879
10 0 59417  68022.000000  0   -5770211.947    848556.885   3656816.547
10 0 59417  68142.000000  0   -6164013.266   1102612.436   2862852.152
10 0 59417  68262.000000  0   -6445700.408   1343299.270   2018468.926
10 0 59417  68382.000000  0   -6610634.493   1564405.923   1138536.329
10 0 59417  68502.000000  0   -6656345.195   1760005.839    238554.165
10 0 59417  68622.000000  0   -6582569.639   1924601.728   -665629.564
10 0 59417  68742.000000  0   -6391246.225   2053261.145  -1558106.210
10 0 59417  68862.000000  0   -6086464.935   2141740.979  -2423194.341
10 0 59417  68982.000000  0   -5674374.686   2186597.956  -3245723.489
10 0 59417  69102.000000  0   -5163049.139   2185281.099  -4011304.654
10 0 59417  69222.000000  0   -4562316.738   2136204.155  -4706581.898
10 0 59417  69342.000000  0   -3883560.270   2038797.307  -5319461.035
10 0 59417  69462.000000  0   -3139491.674   1893537.505  -5839311.590
10 0 59417  69582.000000  0   -2343908.220   1701957.185  -6257141.138
10 0 59417  69702.000000  0   -1511432.714   1466631.150  -6565740.430
10 0 59417  69822.000000  0    -657244.294   1191142.062  -6759795.219
10 0 59417  69942.000000  0     203194.039    880025.629  -6835967.475
10 0 59417  70062.000000  0    1054407.765    538697.347  -6792946.606
10 0 59417  70182.000000  0    1881183.224    173360.179  -6631471.802
10 0 59417  70302.000000  0    2668833.733   -209105.488  -6354319.775
10 0 59417  70422.000000  0    3403455.739   -601267.240  -5966262.744
10 0 59417  70542.000000  0    4072171.780   -995280.469  -5473993.624
10 0 59417  70662.000000  0    4663356.493  -1383040.197  -4886022.320
10 0 59417  70782.000000  0    5166844.258  -1756344.172  -4212540.502
10 0 59417  70902.000000  0    5574112.010  -2107062.640  -3465255.338
10 0 59417  71022.000000  0    5878434.010  -2427311.785  -2657194.194
10 0 59417  71142.000000  0    6075004.148  -2709627.317  -1802482.024
10 0 59417  71262.000000  0    6161021.787  -2947133.667   -916095.467
10 0 59417  71382.000000  0    6135739.479  -3133704.761    -13598.344
10 0 59417  71502.000000  0    6000469.970  -3264112.074    889135.553
10 0 59417  71622.000000  0    5758552.419  -3334157.094   1776214.838
10 0 59417  71742.000000  0    5415276.110  -3340781.574   2632015.517
10 0 59417  71862.000000  0    4977764.348  -3282155.243   3441465.537
10 0 59417  71982.000000  0    4454822.924  -3157736.972   4190317.024
10 0 59417  72102.000000  0    3856757.962  -2968309.525   4865400.424
10 0 59417  72222.000000  0    3195165.370  -2715987.646   5454858.689
10 0 59417  72342.000000  0    2482697.868  -2404197.044   5948353.326
10 0 59417  72462.000000  0    1732817.098  -2037627.108   6337241.322
10 0 59417  72582.000000  0     959534.783  -1622158.583   6614720.878
10 0 59417  72702.000000  0     177148.028  -1164767.057   6775944.297
10 0 59417  72822.000000  0    -600025.682   -673404.090   6818097.053
10 0 59417  72942.000000  0   -1357909.563   -156858.475   6740443.098
10 0 59417  73062.000000  0   -2082921.348    375400.624   6544336.926
10 0 59417  73182.000000  0   -2762215.907    913396.642   6233201.647
10 0 59417  73302.000000  0   -3383913.395   1446831.573   5812473.297
10 0 59417  73422.000000  0   -3937309.676   1965282.243   5289512.111
10 0 59417  73542.000000  0   -4413065.941   2458404.300   4673480.526
10 0 59417  73662.000000  0   -4803373.229   2916140.066   3975187.543
10 0 59417  73782.000000  0   -5102086.959   3328924.764   3206901.808
10 0 59417  73902.000000  0   -5304829.967   3687887.859   2382137.757
10 0 59417  74022.000000  0   -5409061.456   3985045.181   1515416.729
10 0 59417  74142.000000  0   -5414109.628   4213476.266    622005.973
10 0 59417  74262.000000  0   -5321165.095   4367481.322   -282358.040
10 0 59417  74382.000000  0   -5133237.321   4442714.884  -1181754.751
10 0 59417  74502.000000  0   -4855074.360   4436293.134  -2060369.560
10 0 59417  74622.000000  0   -4493046.379   4346870.044  -2902781.073
10 0 59417  74742.000000  0   -4054997.668   4174681.157  -3694237.229
10 0 59417  74862.000000  0   -3550071.512   3921555.238  -4420915.079
10 0 59417  74982.000000  0   -2988513.394   3590894.313  -5070158.952
10 0 59417  75102.000000  0   -2381459.011   3187623.413  -5630693.374
10 0 59417  75222.000000  0   -1740711.080   2718112.524  -6092810.632
10 0 59417  75342.000000  0   -1078507.917   2190070.333  -6448528.632
10 0 59417  75462.000000  0    -407290.736   1612413.930  -6691716.475
10 0 59417  75582.000000  0     260526.431    995117.526  -6818189.453
10 0 59417  75702.000000  0     912780.301    349042.268  -6825773.487
10 0 59417  75822.000000  0    1537775.483   -314251.112  -6714339.619
10 0 59417  75942.000000  0    2124489.253   -982704.716  -6485804.395
10 0 59417  76062.000000  0    2662761.418  -1643976.770  -6144100.665
10 0 59417  76182.000000  0    3143468.232  -2285663.655  -5695117.040
10 0 59417  76302.000000  0    3558677.831  -2895528.681  -5146608.441
10 0 59417  76422.000000  0    3901785.347  -3461735.903  -4508072.869
10 0 59417  76542.000000  0    4167621.422  -3973080.248  -3790596.181
10 0 59417  76662.000000  0    4352535.128  -4419211.393  -3006669.994
10 0 59417  76782.000000  0    4454449.643  -4790847.910  -2169981.314
10 0 59417  76902.000000  0    4472887.458  -5079975.847  -1295176.606
10 0 59417  77022.000000  0    4408962.816  -5280026.440   -397603.875
10 0 59417  77142.000000  0    4265341.884  -5386026.619    506961.540
10 0 59417  77262.000000  0    4046171.398  -5394719.644   1402601.325
10 0 59417  77382.000000  0    3756976.792  -5304651.063   2273544.112
10 0 59417  77502.000000  0    3404531.496  -5116217.618   3104451.490
10 0 59417  77622.000000  0    2996702.671  -4831679.794   3880695.370
10 0 59417  77742.000000  0    2542276.609  -4455135.547   4588620.690
10 0 59417  77862.000000  0    2050768.886  -3992457.433   5215788.181
10 0 59417  77982.000000  0    1532223.484  -3451194.842   5751192.441
10 0 59417  78102.000000  0     997005.323  -2840443.306   6185452.395
10 0 59417  78222.000000  0     455591.297  -2170685.119   6510969.607
10 0 59417  78342.000000  0     -81635.362  -1453604.974   6722054.257
10 0 59417  78462.000000  0    -604583.191   -701884.032   6815019.248
10 0 59417  78582.000000  0   -1103640.897     71026.012   6788241.132
10 0 59417  78702.000000  0   -1569853.358    851143.609   6642186.415
10 0 59417  78822.000000  0   -1995081.843   1624209.600   6379403.703
10 0 59417  78942.000000  0   -2372146.564   2375946.917   6004482.053
10 0 59417  79062.000000  0   -2694948.881   3092324.477   5523975.815
10 0 59417  79182.000000  0   -2958571.809   3759820.876   4946296.542
10 0 59417  79302.000000  0   -3159357.793   4365683.715   4281572.146
10 0 59417  79422.000000  0   -3294960.609   4898179.347   3541473.967
10 0 59417  79542.000000  0   -3364370.576   5346827.676   2739013.915
10 0 59417  79662.000000  0   -3367911.861   5702615.589   1888314.572
10 0 59417  79782.000000  0   -3307212.377   5958183.334   1004357.149
99
